{
  "norad_id": 44961,
  "name": "STARLINK-1080",
  "history": [
    {
      "epoch": "2026-03-28T18:44:25.660320",
      "apogee_km": 417.58712991809443,
      "perigee_km": 413.54039412218845,
      "latitude_deg": -47.754824582284904,
      "longitude_deg": -168.93815519986674,
      "semi_major_axis_km": 6793.700762020141,
      "eccentricity": 0.00029783,
      "inclination_deg": 53.0493,
      "raan_deg": 196.7487,
      "arg_perigee_deg": 199.4551,
      "mean_anomaly_deg": 160.6344,
      "mean_motion_rev_day": 15.50397792
    }
  ]
}