{"fetched_at":"2026-03-30T06:02:59Z","count":15439,"tles":[{"name":"STARLINK-1080","line1":"1 44961U 20001AZ  26087.78085255  .00092693  00000+0  15924-2 0  9991","line2":"2 44961  53.0493 196.7487 0002978 199.4551 160.6344 15.50397792343633","category":"Starlink"}]}